start=new Date('2022-10-25T00:00:00.000Z').valueOf();
sats=[{"SITE":"AFETR","TLE_LINE2":"2 47663  53.0561 101.9064 0001460 111.0364 249.0781 15.06394195 95194","RA_OF_ASC_NODE":"101.9064","ELEMENT_SET_NO":"999","EPOCH":"2022-10-24T20:11:45.769344","FILE":"3631617","PERIOD":"95.593","OBJECT_TYPE":"PAYLOAD","ARG_OF_PERICENTER":"111.0364","MEAN_MOTION_DDOT":"0.0000000000000","OBJECT_NAME":"STARLINK-2053","NORAD_CAT_ID":"47663","RCS_SIZE":"LARGE","MEAN_MOTION_DOT":"-0.00000053","COUNTRY_CODE":"US","PERIAPSIS":"546.220","CENTER_NAME":"EARTH","BSTAR":"0.00001531500000","CLASSIFICATION_TYPE":"U","MEAN_ELEMENT_THEORY":"SGP4","MEAN_ANOMALY":"249.0781","TIME_SYSTEM":"UTC","SEMIMAJOR_AXIS":"6925.366","REF_FRAME":"TEME","GP_ID":"216043602","DECAY_DATE":null,"LAUNCH_DATE":"2021-02-16","INCLINATION":"53.0561","ECCENTRICITY":"0.00014600","TLE_LINE1":"1 47663U 21012AV  22297.84150196 -.00000053  00000-0  15315-4 0  9996","REV_AT_EPOCH":"9519","OBJECT_ID":"2021-012AV","APOAPSIS":"548.242","EPHEMERIS_TYPE":"0","MEAN_MOTION":"15.06394195"},{"EPHEMERIS_TYPE":"0","MEAN_MOTION":"15.06370242","REV_AT_EPOCH":"9407","OBJECT_ID":"2021-012AW","APOAPSIS":"548.022","INCLINATION":"53.0527","ECCENTRICITY":"0.00010350","TLE_LINE1":"1 47664U 21012AW  22297.77880975 -.00004893  00000-0 -31009-3 0  9998","LAUNCH_DATE":"2021-02-16","DECAY_DATE":null,"GP_ID":"216043874","CLASSIFICATION_TYPE":"U","MEAN_ELEMENT_THEORY":"SGP4","TIME_SYSTEM":"UTC","MEAN_ANOMALY":"253.4311","REF_FRAME":"TEME","SEMIMAJOR_AXIS":"6925.440","CENTER_NAME":"EARTH","BSTAR":"-0.00031009000000","PERIAPSIS":"546.588","COUNTRY_CODE":"US","NORAD_CAT_ID":"47664","OBJECT_NAME":"STARLINK-2054","RCS_SIZE":"LARGE","MEAN_MOTION_DOT":"-0.00004893","ARG_OF_PERICENTER":"106.6792","MEAN_MOTION_DDOT":"0.0000000000000","OBJECT_TYPE":"PAYLOAD","EPOCH":"2022-10-24T18:41:29.162400","FILE":"3631618","PERIOD":"95.594","RA_OF_ASC_NODE":"181.8918","ELEMENT_SET_NO":"999","SITE":"AFETR","TLE_LINE2":"2 47664  53.0527 181.8918 0001035 106.6792 253.4311 15.06370242 94076"},{"OBJECT_TYPE":"PAYLOAD","ARG_OF_PERICENTER":"111.0017","MEAN_MOTION_DDOT":"0.0000000000000","RCS_SIZE":"LARGE","OBJECT_NAME":"STARLINK-2056","NORAD_CAT_ID":"47665","MEAN_MOTION_DOT":"-0.00005636","COUNTRY_CODE":"US","SITE":"AFETR","TLE_LINE2":"2 47665  53.0544 177.0332 0001348 111.0017 249.1116 15.06380567 94133","ELEMENT_SET_NO":"999","RA_OF_ASC_NODE":"177.0332","EPOCH":"2022-10-24T18:12:57.023712","PERIOD":"95.593","FILE":"3631618","DECAY_DATE":null,"LAUNCH_DATE":"2021-02-16","INCLINATION":"53.0544","TLE_LINE1":"1 47665U 21012AX  22297.75899333 -.00005636  00000-0 -35997-3 0  9991","ECCENTRICITY":"0.00013480","APOAPSIS":"548.207","OBJECT_ID":"2021-012AX","REV_AT_EPOCH":"9413","MEAN_MOTION":"15.06380567","EPHEMERIS_TYPE":"0","PERIAPSIS":"546.340","BSTAR":"-0.00035997000000","CENTER_NAME":"EARTH","MEAN_ELEMENT_THEORY":"SGP4","CLASSIFICATION_TYPE":"U","REF_FRAME":"TEME","SEMIMAJOR_AXIS":"6925.408","TIME_SYSTEM":"UTC","MEAN_ANOMALY":"249.1116","GP_ID":"216043877"},{"GP_ID":"216038385","TIME_SYSTEM":"UTC","MEAN_ANOMALY":"263.9447","REF_FRAME":"TEME","SEMIMAJOR_AXIS":"6925.330","CLASSIFICATION_TYPE":"U","MEAN_ELEMENT_THEORY":"SGP4","CENTER_NAME":"EARTH","BSTAR":"0.00026715000000","PERIAPSIS":"546.160","EPHEMERIS_TYPE":"0","MEAN_MOTION":"15.06406028","REV_AT_EPOCH":"9458","OBJECT_ID":"2021-012AY","APOAPSIS":"548.230","ECCENTRICITY":"0.00014950","TLE_LINE1":"1 47666U 21012AY  22297.29091012  .00003701  00000-0  26715-3 0  9996","INCLINATION":"53.0540","LAUNCH_DATE":"2021-02-16","DECAY_DATE":null,"FILE":"3631438","PERIOD":"95.592","EPOCH":"2022-10-24T06:58:54.634368","RA_OF_ASC_NODE":"179.4293","ELEMENT_SET_NO":"999","TLE_LINE2":"2 47666  53.0540 179.4293 0001495  96.1713 263.9447 15.06406028 94582","SITE":"AFETR","COUNTRY_CODE":"US","MEAN_MOTION_DOT":"0.00003701","OBJECT_NAME":"STARLINK-2057","NORAD_CAT_ID":"47666","RCS_SIZE":"LARGE","MEAN_MOTION_DDOT":"0.0000000000000","ARG_OF_PERICENTER":"96.1713","OBJECT_TYPE":"PAYLOAD"},{"MEAN_MOTION_DOT":"-0.00001847","OBJECT_NAME":"STARLINK-2058","NORAD_CAT_ID":"47667","RCS_SIZE":"LARGE","COUNTRY_CODE":"US","OBJECT_TYPE":"PAYLOAD","MEAN_MOTION_DDOT":"0.0000000000000","ARG_OF_PERICENTER":"77.9055","RA_OF_ASC_NODE":"202.0475","ELEMENT_SET_NO":"999","FILE":"3631618","PERIOD":"95.593","EPOCH":"2022-10-24T17:51:03.043872","TLE_LINE2":"2 47667  53.0550 202.0475 0001690  77.9055 282.2123 15.06388419 93781","SITE":"AFETR","OBJECT_ID":"2021-012AZ","REV_AT_EPOCH":"9378","APOAPSIS":"548.419","EPHEMERIS_TYPE":"0","MEAN_MOTION":"15.06388419","DECAY_DATE":null,"LAUNCH_DATE":"2021-02-16","ECCENTRICITY":"0.00016900","TLE_LINE1":"1 47667U 21012AZ  22297.74378523 -.00001847  00000-0 -10517-3 0  9996","INCLINATION":"53.0550","TIME_SYSTEM":"UTC","MEAN_ANOMALY":"282.2123","REF_FRAME":"TEME","SEMIMAJOR_AXIS":"6925.384","CLASSIFICATION_TYPE":"U","MEAN_ELEMENT_THEORY":"SGP4","GP_ID":"216043869","PERIAPSIS":"546.079","CENTER_NAME":"EARTH","BSTAR":"-0.00010517000000"},{"GP_ID":"216037886","MEAN_ELEMENT_THEORY":"SGP4","CLASSIFICATION_TYPE":"U","SEMIMAJOR_AXIS":"6925.256","REF_FRAME":"TEME","MEAN_ANOMALY":"262.4922","TIME_SYSTEM":"UTC","BSTAR":"0.00029299000000","CENTER_NAME":"EARTH","PERIAPSIS":"546.174","MEAN_MOTION":"15.06430160","EPHEMERIS_TYPE":"0","APOAPSIS":"548.068","OBJECT_ID":"2021-012BA","REV_AT_EPOCH":"9448","INCLINATION":"53.0537","TLE_LINE1":"1 47668U 21012BA  22297.05634901  .00004089  00000-0  29299-3 0  9992","ECCENTRICITY":"0.00013680","LAUNCH_DATE":"2021-02-16","DECAY_DATE":null,"EPOCH":"2022-10-24T01:21:08.554464","PERIOD":"95.590","FILE":"3631438","ELEMENT_SET_NO":"999","RA_OF_ASC_NODE":"185.1215","SITE":"AFETR","TLE_LINE2":"2 47668  53.0537 185.1215 0001368  97.6223 262.4922 15.06430160 94484","COUNTRY_CODE":"US","RCS_SIZE":"LARGE","NORAD_CAT_ID":"47668","OBJECT_NAME":"STARLINK-2059","MEAN_MOTION_DOT":"0.00004089","ARG_OF_PERICENTER":"97.6223","MEAN_MOTION_DDOT":"0.0000000000000","OBJECT_TYPE":"PAYLOAD"},{"CENTER_NAME":"EARTH","BSTAR":"0.00094531000000","PERIAPSIS":"525.670","GP_ID":"216043895","CLASSIFICATION_TYPE":"U","MEAN_ELEMENT_THEORY":"SGP4","MEAN_ANOMALY":"142.9968","TIME_SYSTEM":"UTC","REF_FRAME":"TEME","SEMIMAJOR_AXIS":"6904.964","INCLINATION":"53.0513","ECCENTRICITY":"0.00016780","TLE_LINE1":"1 47669U 21012BB  22297.70110801  .00016657  00000-0  94531-3 0  9998","LAUNCH_DATE":"2021-02-16","DECAY_DATE":null,"EPHEMERIS_TYPE":"0","MEAN_MOTION":"15.13075697","REV_AT_EPOCH":"9516","OBJECT_ID":"2021-012BB","APOAPSIS":"527.987","SITE":"AFETR","TLE_LINE2":"2 47669  53.0513 102.8639 0001678 217.0908 142.9968 15.13075697 95163","EPOCH":"2022-10-24T16:49:35.732064","FILE":"3631630","PERIOD":"95.170","RA_OF_ASC_NODE":"102.8639","ELEMENT_SET_NO":"999","ARG_OF_PERICENTER":"217.0908","MEAN_MOTION_DDOT":"0.0000000000000","OBJECT_TYPE":"PAYLOAD","COUNTRY_CODE":"US","OBJECT_NAME":"STARLINK-2060","NORAD_CAT_ID":"47669","RCS_SIZE":"LARGE","MEAN_MOTION_DOT":"0.00016657"},{"REV_AT_EPOCH":"9452","OBJECT_ID":"2021-012BC","APOAPSIS":"548.195","EPHEMERIS_TYPE":"0","MEAN_MOTION":"15.06397362","DECAY_DATE":null,"LAUNCH_DATE":"2021-02-16","INCLINATION":"53.0556","ECCENTRICITY":"0.00014050","TLE_LINE1":"1 47670U 21012BC  22297.40282586  .00000668  00000-0  63740-4 0  9991","CLASSIFICATION_TYPE":"U","MEAN_ELEMENT_THEORY":"SGP4","TIME_SYSTEM":"UTC","MEAN_ANOMALY":"269.0537","SEMIMAJOR_AXIS":"6925.357","REF_FRAME":"TEME","GP_ID":"216038886","PERIAPSIS":"546.249","CENTER_NAME":"EARTH","BSTAR":"0.00006374000000","OBJECT_NAME":"STARLINK-2062","NORAD_CAT_ID":"47670","RCS_SIZE":"LARGE","MEAN_MOTION_DOT":"0.00000668","COUNTRY_CODE":"US","OBJECT_TYPE":"PAYLOAD","ARG_OF_PERICENTER":"91.0613","MEAN_MOTION_DDOT":"0.0000000000000","RA_OF_ASC_NODE":"183.5735","ELEMENT_SET_NO":"999","EPOCH":"2022-10-24T09:40:04.154304","FILE":"3631438","PERIOD":"95.592","SITE":"AFETR","TLE_LINE2":"2 47670  53.0556 183.5735 0001405  91.0613 269.0537 15.06397362 94526"},{"GP_ID":"216070677","MEAN_ELEMENT_THEORY":"SGP4","CLASSIFICATION_TYPE":"U","REF_FRAME":"TEME","SEMIMAJOR_AXIS":"6925.388","MEAN_ANOMALY":"265.0586","TIME_SYSTEM":"UTC","BSTAR":"-0.00007219600000","CENTER_NAME":"EARTH","PERIAPSIS":"546.073","MEAN_MOTION":"15.06387168","EPHEMERIS_TYPE":"0","APOAPSIS":"548.433","REV_AT_EPOCH":"9458","OBJECT_ID":"2021-012BD","INCLINATION":"53.0542","TLE_LINE1":"1 47671U 21012BD  22297.71614436 -.00001356  00000-0 -72196-4 0  9991","ECCENTRICITY":"0.00017040","DECAY_DATE":null,"LAUNCH_DATE":"2021-02-16","EPOCH":"2022-10-24T17:11:14.872704","PERIOD":"95.593","FILE":"3631857","ELEMENT_SET_NO":"999","RA_OF_ASC_NODE":"182.1481","SITE":"AFETR","TLE_LINE2":"2 47671  53.0542 182.1481 0001704  95.0597 265.0586 15.06387168 94581","COUNTRY_CODE":"US","RCS_SIZE":"LARGE","OBJECT_NAME":"STARLINK-2064","NORAD_CAT_ID":"47671","MEAN_MOTION_DOT":"-0.00001356","ARG_OF_PERICENTER":"95.0597","MEAN_MOTION_DDOT":"0.0000000000000","OBJECT_TYPE":"PAYLOAD"},{"MEAN_MOTION":"15.06405540","EPHEMERIS_TYPE":"0","APOAPSIS":"548.142","OBJECT_ID":"2021-012BE","REV_AT_EPOCH":"9459","INCLINATION":"53.0539","TLE_LINE1":"1 47672U 21012BE  22297.03145506  .00001632  00000-0  12842-3 0  9990","ECCENTRICITY":"0.00013650","LAUNCH_DATE":"2021-02-16","DECAY_DATE":null,"GP_ID":"216037386","MEAN_ELEMENT_THEORY":"SGP4","CLASSIFICATION_TYPE":"U","SEMIMAJOR_AXIS":"6925.332","REF_FRAME":"TEME","TIME_SYSTEM":"UTC","MEAN_ANOMALY":"248.8050","BSTAR":"0.00012842000000","CENTER_NAME":"EARTH","PERIAPSIS":"546.251","COUNTRY_CODE":"US","RCS_SIZE":"LARGE","OBJECT_NAME":"STARLINK-2065","NORAD_CAT_ID":"47672","MEAN_MOTION_DOT":"0.00001632","ARG_OF_PERICENTER":"111.3085","MEAN_MOTION_DDOT":"0.0000000000000","OBJECT_TYPE":"PAYLOAD","EPOCH":"2022-10-24T00:45:17.717184","PERIOD":"95.592","FILE":"3631438","ELEMENT_SET_NO":"999","RA_OF_ASC_NODE":"175.2468","SITE":"AFETR","TLE_LINE2":"2 47672  53.0539 175.2468 0001365 111.3085 248.8050 15.06405540 94594"}];
